{
  "type": "FeatureCollection",
  "features": [
    {
      "type": "Feature",
      "properties": {
        "norad_id": 44873,
        "name": "CSG-1",
        "group": "resource",
        "lat": 34.62563976601051,
        "lon": 163.76135654828036,
        "alt_km": 619.5712673643102,
        "timestamp": "2025-12-13T22:39:29.365876+00:00",
        "meta_object_name": "CSG-1",
        "meta_object_id": "2019-092A",
        "meta_epoch": "2025-12-13T06:17:54.087648",
        "meta_mean_motion": 14.82165932,
        "meta_eccentricity": 0.00014444,
        "meta_inclination": 97.881,
        "meta_ra_of_asc_node": 168.5788,
        "meta_arg_of_pericenter": 85.0626,
        "meta_mean_anomaly": 275.0752,
        "meta_ephemeris_type": 0,
        "meta_classification_type": "U",
        "meta_norad_cat_id": 44873,
        "meta_element_set_no": 999,
        "meta_rev_at_epoch": 32393,
        "meta_bstar": 0.00013688189,
        "meta_mean_motion_dot": 1.038e-05,
        "meta_mean_motion_ddot": 0,
        "tle_line1": "1 44873U 19092A   25347.26243157  .00001038  00000+0  13688-3 0  9998",
        "tle_line2": "2 44873  97.8810 168.5788 0001444  85.0626 275.0752 14.82165932323933"
      },
      "geometry": {
        "type": "Point",
        "coordinates": [
          163.76135654828036,
          34.62563976601051
        ]
      }
    },
    {
      "type": "Feature",
      "properties": {
        "norad_id": 46277,
        "name": "NEMO-HD",
        "group": "resource",
        "lat": 81.58687664144298,
        "lon": -11.991806424239961,
        "alt_km": 436.52652501403736,
        "timestamp": "2025-12-13T22:39:29.365886+00:00",
        "meta_object_name": "NEMO-HD",
        "meta_object_id": "2020-061F",
        "meta_epoch": "2025-12-13T08:15:20.975328",
        "meta_mean_motion": 15.40347042,
        "meta_eccentricity": 0.00018415,
        "meta_inclination": 97.2215,
        "meta_ra_of_asc_node": 46.4341,
        "meta_arg_of_pericenter": 56.0215,
        "meta_mean_anomaly": 304.1207,
        "meta_ephemeris_type": 0,
        "meta_classification_type": "U",
        "meta_norad_cat_id": 46277,
        "meta_element_set_no": 999,
        "meta_rev_at_epoch": 29333,
        "meta_bstar": 0.00040705007,
        "meta_mean_motion_dot": 0.0001636,
        "meta_mean_motion_ddot": 0,
        "tle_line1": "1 46277U 20061F   25347.34399277  .00016360  00000+0  40705-3 0  9994",
        "tle_line2": "2 46277  97.2215  46.4341 0001841  56.0215 304.1207 15.40347042293336"
      },
      "geometry": {
        "type": "Point",
        "coordinates": [
          -11.991806424239961,
          81.58687664144298
        ]
      }
    },
    {
      "type": "Feature",
      "properties": {
        "norad_id": 46984,
        "name": "SENTINEL-6A",
        "group": "resource",
        "lat": -60.50260643183442,
        "lon": 31.622109185740033,
        "alt_km": 1338.2702616608294,
        "timestamp": "2025-12-13T22:39:29.365896+00:00",
        "meta_object_name": "SENTINEL-6A",
        "meta_object_id": "2020-086A",
        "meta_epoch": "2025-12-13T04:28:50.695104",
        "meta_mean_motion": 12.80930608,
        "meta_eccentricity": 0.00077434,
        "meta_inclination": 66.0389,
        "meta_ra_of_asc_node": 161.3797,
        "meta_arg_of_pericenter": 269.2599,
        "meta_mean_anomaly": 90.7529,
        "meta_ephemeris_type": 0,
        "meta_classification_type": "U",
        "meta_norad_cat_id": 46984,
        "meta_element_set_no": 999,
        "meta_rev_at_epoch": 23650,
        "meta_bstar": 0.00012344583,
        "meta_mean_motion_dot": -3.3e-07,
        "meta_mean_motion_ddot": 0,
        "tle_line1": "1 46984U 20086A   25347.18669786 -.00000033  00000+0  12345-3 0  9993",
        "tle_line2": "2 46984  66.0389 161.3797 0007743 269.2599  90.7529 12.80930608236507"
      },
      "geometry": {
        "type": "Point",
        "coordinates": [
          31.622109185740033,
          -60.50260643183442
        ]
      }
    },
    {
      "type": "Feature",
      "properties": {
        "norad_id": 48079,
        "name": "GAOFEN-12 02",
        "group": "resource",
        "lat": -69.47115476418344,
        "lon": 3.960703146616144,
        "alt_km": 636.9106614262428,
        "timestamp": "2025-12-13T22:39:29.365906+00:00",
        "meta_object_name": "GAOFEN-12 02",
        "meta_object_id": "2021-026A",
        "meta_epoch": "2025-12-13T06:45:35.949312",
        "meta_mean_motion": 14.80676447,
        "meta_eccentricity": 0.00035596,
        "meta_inclination": 97.9852,
        "meta_ra_of_asc_node": 341.2854,
        "meta_arg_of_pericenter": 100.1528,
        "meta_mean_anomaly": 260.0085,
        "meta_ephemeris_type": 0,
        "meta_classification_type": "U",
        "meta_norad_cat_id": 48079,
        "meta_element_set_no": 999,
        "meta_rev_at_epoch": 25425,
        "meta_bstar": 0.00011946615,
        "meta_mean_motion_dot": 8.65e-06,
        "meta_mean_motion_ddot": 0,
        "tle_line1": "1 48079U 21026A   25347.28166608  .00000865  00000+0  11947-3 0  9990",
        "tle_line2": "2 48079  97.9852 341.2854 0003559 100.1528 260.0085 14.80676447254252"
      },
      "geometry": {
        "type": "Point",
        "coordinates": [
          3.960703146616144,
          -69.47115476418344
        ]
      }
    },
    {
      "type": "Feature",
      "properties": {
        "norad_id": 48268,
        "name": "PLEIADES NEO 3",
        "group": "resource",
        "lat": 0.18449389898197036,
        "lon": 60.34188351336499,
        "alt_km": 627.0597117145717,
        "timestamp": "2025-12-13T22:39:29.365916+00:00",
        "meta_object_name": "PLEIADES NEO 3",
        "meta_object_id": "2021-034A",
        "meta_epoch": "2025-12-13T08:04:13.182816",
        "meta_mean_motion": 14.81674171,
        "meta_eccentricity": 0.00012972,
        "meta_inclination": 97.8939,
        "meta_ra_of_asc_node": 59.7685,
        "meta_arg_of_pericenter": 93.7248,
        "meta_mean_anomaly": 266.4113,
        "meta_ephemeris_type": 0,
        "meta_classification_type": "U",
        "meta_norad_cat_id": 48268,
        "meta_element_set_no": 999,
        "meta_rev_at_epoch": 25013,
        "meta_bstar": 0.00024687715,
        "meta_mean_motion_dot": 1.891e-05,
        "meta_mean_motion_ddot": 0,
        "tle_line1": "1 48268U 21034A   25347.33626369  .00001891  00000+0  24688-3 0  9996",
        "tle_line2": "2 48268  97.8939  59.7685 0001297  93.7248 266.4113 14.81674171250131"
      },
      "geometry": {
        "type": "Point",
        "coordinates": [
          60.34188351336499,
          0.18449389898197036
        ]
      }
    },
    {
      "type": "Feature",
      "properties": {
        "norad_id": 49070,
        "name": "PLEIADES NEO 4",
        "group": "resource",
        "lat": -0.5273461534576309,
        "lon": -119.70976415240553,
        "alt_km": 627.1794938355079,
        "timestamp": "2025-12-13T22:39:29.365926+00:00",
        "meta_object_name": "PLEIADES NEO 4",
        "meta_object_id": "2021-073E",
        "meta_epoch": "2025-12-12T08:34:07.569120",
        "meta_mean_motion": 14.81676895,
        "meta_eccentricity": 0.00012379,
        "meta_inclination": 97.8941,
        "meta_ra_of_asc_node": 58.7994,
        "meta_arg_of_pericenter": 92.1719,
        "meta_mean_anomaly": 267.9635,
        "meta_ephemeris_type": 0,
        "meta_classification_type": "U",
        "meta_norad_cat_id": 49070,
        "meta_element_set_no": 999,
        "meta_rev_at_epoch": 23370,
        "meta_bstar": 3.8133e-06,
        "meta_mean_motion_dot": -2.2e-07,
        "meta_mean_motion_ddot": 0,
        "tle_line1": "1 49070U 21073E   25346.35703205 -.00000022  00000+0  38133-5 0  9995",
        "tle_line2": "2 49070  97.8941  58.7994 0001237  92.1719 267.9635 14.81676895233702"
      },
      "geometry": {
        "type": "Point",
        "coordinates": [
          -119.70976415240553,
          -0.5273461534576309
        ]
      }
    },
    {
      "type": "Feature",
      "properties": {
        "norad_id": 49260,
        "name": "LANDSAT 9",
        "group": "resource",
        "lat": 81.75723607546335,
        "lon": -38.71248946442283,
        "alt_km": 694.2616097159625,
        "timestamp": "2025-12-13T22:39:29.365937+00:00",
        "meta_object_name": "LANDSAT 9",
        "meta_object_id": "2021-088A",
        "meta_epoch": "2025-12-13T04:06:53.025984",
        "meta_mean_motion": 14.57098698,
        "meta_eccentricity": 0.00011711,
        "meta_inclination": 98.2095,
        "meta_ra_of_asc_node": 55.2763,
        "meta_arg_of_pericenter": 89.2058,
        "meta_mean_anomaly": 270.9274,
        "meta_ephemeris_type": 0,
        "meta_classification_type": "U",
        "meta_norad_cat_id": 49260,
        "meta_element_set_no": 999,
        "meta_rev_at_epoch": 22391,
        "meta_bstar": 0.00016444319,
        "meta_mean_motion_dot": 6.95e-06,
        "meta_mean_motion_ddot": 0,
        "tle_line1": "1 49260U 21088A   25347.17144706  .00000695  00000+0  16444-3 0  9992",
        "tle_line2": "2 49260  98.2095  55.2763 0001171  89.2058 270.9274 14.57098698223911"
      },
      "geometry": {
        "type": "Point",
        "coordinates": [
          -38.71248946442283,
          81.75723607546335
        ]
      }
    }
  ]
}